{
  "type": "FeatureCollection",
  "features": [
    {
      "type": "Feature",
      "properties": {
        "norad_id": 43823,
        "name": "GEO-KOMPSAT-2A",
        "group": "weather",
        "lat": 0.02809342929153014,
        "lon": 178.79404386603633,
        "alt_km": 35785.64810795891,
        "timestamp": "2025-12-16T21:38:56.812014+00:00",
        "meta_object_name": "GEO-KOMPSAT-2A",
        "meta_object_id": "2018-100A",
        "meta_epoch": "2025-12-16T07:07:06.206304",
        "meta_mean_motion": 1.00271835,
        "meta_eccentricity": 4.993e-05,
        "meta_inclination": 0.0508,
        "meta_ra_of_asc_node": 132.3973,
        "meta_arg_of_pericenter": 330.4458,
        "meta_mean_anomaly": 217.3998,
        "meta_ephemeris_type": 0,
        "meta_classification_type": "U",
        "meta_norad_cat_id": 43823,
        "meta_element_set_no": 999,
        "meta_rev_at_epoch": 2579,
        "meta_bstar": 0,
        "meta_mean_motion_dot": -3.2e-06,
        "meta_mean_motion_ddot": 0,
        "tle_line1": "1 43823U 18100A   25350.29659961 -.00000320  00000+0  00000+0 0  9996",
        "tle_line2": "2 43823   0.0508 132.3973 0000499 330.4458 217.3998  1.00271835 25791"
      },
      "geometry": {
        "type": "Point",
        "coordinates": [
          178.79404386603633,
          0.02809342929153014
        ]
      }
    },
    {
      "type": "Feature",
      "properties": {
        "norad_id": 44387,
        "name": "METEOR-M2 2",
        "group": "weather",
        "lat": 72.56826233250897,
        "lon": -179.39191123280258,
        "alt_km": 803.0017697507792,
        "timestamp": "2025-12-16T21:38:56.812026+00:00",
        "meta_object_name": "METEOR-M2 2",
        "meta_object_id": "2019-038A",
        "meta_epoch": "2025-12-16T07:40:11.541792",
        "meta_mean_motion": 14.24293291,
        "meta_eccentricity": 0.00014318,
        "meta_inclination": 98.8971,
        "meta_ra_of_asc_node": 330.0924,
        "meta_arg_of_pericenter": 139.9983,
        "meta_mean_anomaly": 220.1301,
        "meta_ephemeris_type": 0,
        "meta_classification_type": "U",
        "meta_norad_cat_id": 44387,
        "meta_element_set_no": 999,
        "meta_rev_at_epoch": 33526,
        "meta_bstar": 5.7068085e-05,
        "meta_mean_motion_dot": 8.6e-07,
        "meta_mean_motion_ddot": 0,
        "tle_line1": "1 44387U 19038A   25350.31957803  .00000086  00000+0  57068-4 0  9991",
        "tle_line2": "2 44387  98.8971 330.0924 0001431 139.9983 220.1301 14.24293291335267"
      },
      "geometry": {
        "type": "Point",
        "coordinates": [
          -179.39191123280258,
          72.56826233250897
        ]
      }
    },
    {
      "type": "Feature",
      "properties": {
        "norad_id": 47719,
        "name": "ARKTIKA-M 1",
        "group": "weather",
        "lat": 57.012780160565384,
        "lon": -147.653849673403,
        "alt_km": 32699.669167674063,
        "timestamp": "2025-12-16T21:38:56.812039+00:00",
        "meta_object_name": "ARKTIKA-M 1",
        "meta_object_id": "2021-016A",
        "meta_epoch": "2025-12-16T01:33:46.454400",
        "meta_mean_motion": 2.00630649,
        "meta_eccentricity": 0.7205676,
        "meta_inclination": 63.179,
        "meta_ra_of_asc_node": 83.5626,
        "meta_arg_of_pericenter": 269.1378,
        "meta_mean_anomaly": 15.5886,
        "meta_ephemeris_type": 0,
        "meta_classification_type": "U",
        "meta_norad_cat_id": 47719,
        "meta_element_set_no": 999,
        "meta_rev_at_epoch": 3511,
        "meta_bstar": 0,
        "meta_mean_motion_dot": -1.08e-06,
        "meta_mean_motion_ddot": 0,
        "tle_line1": "1 47719U 21016A   25350.06512100 -.00000108  00000+0  00000+0 0  9996",
        "tle_line2": "2 47719  63.1790  83.5626 7205676 269.1378  15.5886  2.00630649 35118"
      },
      "geometry": {
        "type": "Point",
        "coordinates": [
          -147.653849673403,
          57.012780160565384
        ]
      }
    },
    {
      "type": "Feature",
      "properties": {
        "norad_id": 49008,
        "name": "FENGYUN 3E",
        "group": "weather",
        "lat": -1.8545377148678523,
        "lon": -8.340138741722933,
        "alt_km": 829.1372510048914,
        "timestamp": "2025-12-16T21:38:56.812053+00:00",
        "meta_object_name": "FENGYUN 3E",
        "meta_object_id": "2021-062A",
        "meta_epoch": "2025-12-16T06:26:12.577632",
        "meta_mean_motion": 14.19881506,
        "meta_eccentricity": 6.074e-05,
        "meta_inclination": 98.7478,
        "meta_ra_of_asc_node": 350.7479,
        "meta_arg_of_pericenter": 237.8463,
        "meta_mean_anomaly": 122.2654,
        "meta_ephemeris_type": 0,
        "meta_classification_type": "U",
        "meta_norad_cat_id": 49008,
        "meta_element_set_no": 999,
        "meta_rev_at_epoch": 23062,
        "meta_bstar": 0.00016193355,
        "meta_mean_motion_dot": 3e-06,
        "meta_mean_motion_ddot": 0,
        "tle_line1": "1 49008U 21062A   25350.26820113  .00000300  00000+0  16193-3 0  9995",
        "tle_line2": "2 49008  98.7478 350.7479 0000607 237.8463 122.2654 14.19881506230625"
      },
      "geometry": {
        "type": "Point",
        "coordinates": [
          -8.340138741722933,
          -1.8545377148678523
        ]
      }
    },
    {
      "type": "Feature",
      "properties": {
        "norad_id": 51850,
        "name": "GOES 18",
        "group": "weather",
        "lat": -0.0031928216541572607,
        "lon": -86.49256883825367,
        "alt_km": 35784.76787197037,
        "timestamp": "2025-12-16T21:38:56.812065+00:00",
        "meta_object_name": "GOES 18",
        "meta_object_id": "2022-021A",
        "meta_epoch": "2025-12-16T07:57:38.784960",
        "meta_mean_motion": 1.0027185,
        "meta_eccentricity": 4.734e-05,
        "meta_inclination": 0.0136,
        "meta_ra_of_asc_node": 96.7105,
        "meta_arg_of_pericenter": 228.395,
        "meta_mean_anomaly": 102.5304,
        "meta_ephemeris_type": 0,
        "meta_classification_type": "U",
        "meta_norad_cat_id": 51850,
        "meta_element_set_no": 999,
        "meta_rev_at_epoch": 475,
        "meta_bstar": 0,
        "meta_mean_motion_dot": 1.2e-06,
        "meta_mean_motion_ddot": 0,
        "tle_line1": "1 51850U 22021A   25350.33169890  .00000120  00000+0  00000+0 0  9991",
        "tle_line2": "2 51850   0.0136  96.7105 0000473 228.3950 102.5304  1.00271850  4757"
      },
      "geometry": {
        "type": "Point",
        "coordinates": [
          -86.49256883825367,
          -0.0031928216541572607
        ]
      }
    },
    {
      "type": "Feature",
      "properties": {
        "norad_id": 54234,
        "name": "NOAA 21 (JPSS-2)",
        "group": "weather",
        "lat": -0.8004713863523617,
        "lon": -72.71844080926071,
        "alt_km": 828.6836366659227,
        "timestamp": "2025-12-16T21:38:56.812078+00:00",
        "meta_object_name": "NOAA 21 (JPSS-2)",
        "meta_object_id": "2022-150A",
        "meta_epoch": "2025-12-16T08:07:10.774560",
        "meta_mean_motion": 14.19525332,
        "meta_eccentricity": 0.000207,
        "meta_inclination": 98.7465,
        "meta_ra_of_asc_node": 286.6017,
        "meta_arg_of_pericenter": 31.0026,
        "meta_mean_anomaly": 329.1272,
        "meta_ephemeris_type": 0,
        "meta_classification_type": "U",
        "meta_norad_cat_id": 54234,
        "meta_element_set_no": 999,
        "meta_rev_at_epoch": 16060,
        "meta_bstar": 5.3931305e-05,
        "meta_mean_motion_dot": 7e-07,
        "meta_mean_motion_ddot": 0,
        "tle_line1": "1 54234U 22150A   25350.33831915  .00000070  00000+0  53931-4 0  9997",
        "tle_line2": "2 54234  98.7465 286.6017 0002070  31.0026 329.1272 14.19525332160604"
      },
      "geometry": {
        "type": "Point",
        "coordinates": [
          -72.71844080926071,
          -0.8004713863523617
        ]
      }
    },
    {
      "type": "Feature",
      "properties": {
        "norad_id": 54743,
        "name": "METEOSAT-12 (MTG-I1)",
        "group": "weather",
        "lat": 0.32639443455598455,
        "lon": 50.230703446426055,
        "alt_km": 35792.00310918465,
        "timestamp": "2025-12-16T21:38:56.812090+00:00",
        "meta_object_name": "METEOSAT-12 (MTG-I1)",
        "meta_object_id": "2022-170C",
        "meta_epoch": "2025-12-16T06:30:24.719616",
        "meta_mean_motion": 1.00269912,
        "meta_eccentricity": 0.00015433,
        "meta_inclination": 0.6906,
        "meta_ra_of_asc_node": 24.1949,
        "meta_arg_of_pericenter": 239.3596,
        "meta_mean_anomaly": 278.9283,
        "meta_ephemeris_type": 0,
        "meta_classification_type": "U",
        "meta_norad_cat_id": 54743,
        "meta_element_set_no": 999,
        "meta_rev_at_epoch": 1114,
        "meta_bstar": 0,
        "meta_mean_motion_dot": 1.5e-07,
        "meta_mean_motion_ddot": 0,
        "tle_line1": "1 54743U 22170C   25350.27111944  .00000015  00000+0  00000+0 0  9993",
        "tle_line2": "2 54743   0.6906  24.1949 0001543 239.3596 278.9283  1.00269912 11141"
      },
      "geometry": {
        "type": "Point",
        "coordinates": [
          50.230703446426055,
          0.32639443455598455
        ]
      }
    }
  ]
}